start=new Date('2023-02-11T00:00:00.000Z').valueOf();
sats=[{"RCS_SIZE":"LARGE","MEAN_ANOMALY":"261.3386","PERIOD":"95.592","SITE":"AFETR","INCLINATION":"53.0539","GP_ID":"225069948","OBJECT_TYPE":"PAYLOAD","CENTER_NAME":"EARTH","REV_AT_EPOCH":"11373","COUNTRY_CODE":"US","OBJECT_ID":"2021-005B","EPHEMERIS_TYPE":"0","MEAN_MOTION":"15.06396922","EPOCH":"2023-02-10T08:46:33.027456","DECAY_DATE":null,"SEMIMAJOR_AXIS":"6925.358","BSTAR":"0.00018881000000","CLASSIFICATION_TYPE":"U","OBJECT_NAME":"STARLINK-2011","APOAPSIS":"548.177","LAUNCH_DATE":"2021-01-20","PERIAPSIS":"546.269","TIME_SYSTEM":"UTC","NORAD_CAT_ID":"47350","FILE":"3785071","REF_FRAME":"TEME","ARG_OF_PERICENTER":"98.7759","RA_OF_ASC_NODE":"64.4247","TLE_LINE2":"2 47350  53.0539  64.4247 0001378  98.7759 261.3386 15.06396922113734","MEAN_MOTION_DDOT":"0.0000000000000","ELEMENT_SET_NO":"999","MEAN_MOTION_DOT":"0.00002532","MEAN_ELEMENT_THEORY":"SGP4","TLE_LINE1":"1 47350U 21005B   23041.36566004  .00002532  00000-0  18881-3 0  9998","ECCENTRICITY":"0.00013780"},{"RCS_SIZE":"LARGE","MEAN_ANOMALY":"260.7987","PERIOD":"95.591","INCLINATION":"53.0536","SITE":"AFETR","GP_ID":"225069199","OBJECT_TYPE":"PAYLOAD","CENTER_NAME":"EARTH","REV_AT_EPOCH":"11428","COUNTRY_CODE":"US","OBJECT_ID":"2021-005C","EPHEMERIS_TYPE":"0","EPOCH":"2023-02-10T07:52:05.567808","MEAN_MOTION":"15.06416917","DECAY_DATE":null,"BSTAR":"0.00036261000000","SEMIMAJOR_AXIS":"6925.297","OBJECT_NAME":"STARLINK-2017","CLASSIFICATION_TYPE":"U","LAUNCH_DATE":"2021-01-20","APOAPSIS":"547.935","PERIAPSIS":"546.388","TIME_SYSTEM":"UTC","NORAD_CAT_ID":"47351","FILE":"3785071","REF_FRAME":"TEME","ARG_OF_PERICENTER":"99.3129","RA_OF_ASC_NODE":"24.5819","TLE_LINE2":"2 47351  53.0536  24.5819 0001117  99.3129 260.7987 15.06416917114281","MEAN_MOTION_DDOT":"0.0000000000000","ELEMENT_SET_NO":"999","MEAN_MOTION_DOT":"0.00005126","TLE_LINE1":"1 47351U 21005C   23041.32784222  .00005126  00000-0  36261-3 0  9993","MEAN_ELEMENT_THEORY":"SGP4","ECCENTRICITY":"0.00011170"},{"OBJECT_NAME":"STARLINK-2034","CLASSIFICATION_TYPE":"U","BSTAR":"0.00090225000000","SEMIMAJOR_AXIS":"6925.318","PERIAPSIS":"546.115","APOAPSIS":"548.251","LAUNCH_DATE":"2021-01-20","OBJECT_ID":"2021-005D","EPHEMERIS_TYPE":"0","DECAY_DATE":null,"EPOCH":"2023-02-10T09:55:32.712384","MEAN_MOTION":"15.06409959","CENTER_NAME":"EARTH","COUNTRY_CODE":"US","REV_AT_EPOCH":"11373","INCLINATION":"53.0523","SITE":"AFETR","MEAN_ANOMALY":"253.6783","RCS_SIZE":"LARGE","PERIOD":"95.592","GP_ID":"225068950","OBJECT_TYPE":"PAYLOAD","ECCENTRICITY":"0.00015420","MEAN_MOTION_DOT":"0.00013187","TLE_LINE1":"1 47352U 21005D   23041.41357306  .00013187  00000-0  90225-3 0  9999","MEAN_ELEMENT_THEORY":"SGP4","MEAN_MOTION_DDOT":"0.0000000000000","ELEMENT_SET_NO":"999","TLE_LINE2":"2 47352  53.0523  64.2096 0001542 106.4376 253.6783 15.06409959113734","TIME_SYSTEM":"UTC","NORAD_CAT_ID":"47352","FILE":"3785071","REF_FRAME":"TEME","ARG_OF_PERICENTER":"106.4376","RA_OF_ASC_NODE":"64.2096"},{"TLE_LINE2":"2 47353  53.0535  10.3038 0000817  99.7612 260.3469 15.06402735115134","ELEMENT_SET_NO":"999","MEAN_MOTION_DDOT":"0.0000000000000","TIME_SYSTEM":"UTC","NORAD_CAT_ID":"47353","REF_FRAME":"TEME","FILE":"3784198","ARG_OF_PERICENTER":"99.7612","RA_OF_ASC_NODE":"10.3038","ECCENTRICITY":"0.00008170","MEAN_MOTION_DOT":"0.00016630","MEAN_ELEMENT_THEORY":"SGP4","TLE_LINE1":"1 47353U 21005E   23041.16984229  .00016630  00000-0  11326-2 0  9992","CENTER_NAME":"EARTH","COUNTRY_CODE":"US","REV_AT_EPOCH":"11513","RCS_SIZE":"LARGE","MEAN_ANOMALY":"260.3469","PERIOD":"95.592","SITE":"AFETR","INCLINATION":"53.0535","GP_ID":"225030701","OBJECT_TYPE":"PAYLOAD","SEMIMAJOR_AXIS":"6925.340","BSTAR":"0.00113260000000","CLASSIFICATION_TYPE":"U","OBJECT_NAME":"STARLINK-2045","LAUNCH_DATE":"2021-01-20","APOAPSIS":"547.771","PERIAPSIS":"546.639","OBJECT_ID":"2021-005E","EPHEMERIS_TYPE":"0","EPOCH":"2023-02-10T04:04:34.373856","MEAN_MOTION":"15.06402735","DECAY_DATE":null},{"CENTER_NAME":"EARTH","REV_AT_EPOCH":"11429","COUNTRY_CODE":"US","GP_ID":"225070448","OBJECT_TYPE":"PAYLOAD","SITE":"AFETR","INCLINATION":"53.0548","RCS_SIZE":"LARGE","PERIOD":"95.592","MEAN_ANOMALY":"262.3083","PERIAPSIS":"546.285","APOAPSIS":"548.136","LAUNCH_DATE":"2021-01-20","OBJECT_NAME":"STARLINK-2046","CLASSIFICATION_TYPE":"U","BSTAR":"0.00028908000000","SEMIMAJOR_AXIS":"6925.346","DECAY_DATE":null,"MEAN_MOTION":"15.06400967","EPOCH":"2023-02-10T20:18:32.707296","OBJECT_ID":"2021-005F","EPHEMERIS_TYPE":"0","MEAN_MOTION_DDOT":"0.0000000000000","ELEMENT_SET_NO":"999","TLE_LINE2":"2 47354  53.0548  27.2542 0001336  97.8058 262.3083 15.06400967114291","ARG_OF_PERICENTER":"97.8058","RA_OF_ASC_NODE":"27.2542","TIME_SYSTEM":"UTC","NORAD_CAT_ID":"47354","FILE":"3785071","REF_FRAME":"TEME","ECCENTRICITY":"0.00013360","TLE_LINE1":"1 47354U 21005F   23041.84621189  .00004027  00000-0  28908-3 0  9993","MEAN_ELEMENT_THEORY":"SGP4","MEAN_MOTION_DOT":"0.00004027"},{"MEAN_MOTION_DDOT":"0.0000000000000","ELEMENT_SET_NO":"999","TLE_LINE2":"2 47355  53.0565  12.1528 0001153 110.6107 249.5005 15.06398049114506","ARG_OF_PERICENTER":"110.6107","RA_OF_ASC_NODE":"12.1528","NORAD_CAT_ID":"47355","TIME_SYSTEM":"UTC","REF_FRAME":"TEME","FILE":"3785071","ECCENTRICITY":"0.00011530","TLE_LINE1":"1 47355U 21005G   23041.86786606  .00003048  00000-0  22341-3 0  9999","MEAN_ELEMENT_THEORY":"SGP4","MEAN_MOTION_DOT":"0.00003048","CENTER_NAME":"EARTH","REV_AT_EPOCH":"11450","COUNTRY_CODE":"US","GP_ID":"225068700","OBJECT_TYPE":"PAYLOAD","INCLINATION":"53.0565","SITE":"AFETR","RCS_SIZE":"LARGE","PERIOD":"95.592","MEAN_ANOMALY":"249.5005","PERIAPSIS":"546.421","APOAPSIS":"548.018","LAUNCH_DATE":"2021-01-20","OBJECT_NAME":"STARLINK-2047","CLASSIFICATION_TYPE":"U","BSTAR":"0.00022341000000","SEMIMAJOR_AXIS":"6925.355","DECAY_DATE":null,"EPOCH":"2023-02-10T20:49:43.627584","MEAN_MOTION":"15.06398049","OBJECT_ID":"2021-005G","EPHEMERIS_TYPE":"0"},{"OBJECT_ID":"2021-005H","EPHEMERIS_TYPE":"0","DECAY_DATE":null,"EPOCH":"2023-02-10T07:36:13.343904","MEAN_MOTION":"15.06403799","OBJECT_NAME":"STARLINK-2049","CLASSIFICATION_TYPE":"U","BSTAR":"0.00020745000000","SEMIMAJOR_AXIS":"6925.337","PERIAPSIS":"546.232","APOAPSIS":"548.171","LAUNCH_DATE":"2021-01-20","INCLINATION":"53.0555","SITE":"AFETR","RCS_SIZE":"LARGE","PERIOD":"95.592","MEAN_ANOMALY":"256.1574","GP_ID":"225069450","OBJECT_TYPE":"PAYLOAD","CENTER_NAME":"EARTH","COUNTRY_CODE":"US","REV_AT_EPOCH":"11414","MEAN_MOTION_DOT":"0.00002810","TLE_LINE1":"1 47356U 21005H   23041.31682111  .00002810  00000-0  20745-3 0  9998","MEAN_ELEMENT_THEORY":"SGP4","ECCENTRICITY":"0.00014000","NORAD_CAT_ID":"47356","TIME_SYSTEM":"UTC","REF_FRAME":"TEME","FILE":"3785071","ARG_OF_PERICENTER":"103.9571","RA_OF_ASC_NODE":"34.6368","MEAN_MOTION_DDOT":"0.0000000000000","ELEMENT_SET_NO":"999","TLE_LINE2":"2 47356  53.0555  34.6368 0001400 103.9571 256.1574 15.06403799114146"},{"ECCENTRICITY":"0.00014030","MEAN_ELEMENT_THEORY":"SGP4","TLE_LINE1":"1 47357U 21005J   23041.45780273  .00005647  00000-0  39763-3 0  9993","MEAN_MOTION_DOT":"0.00005647","TLE_LINE2":"2 47357  53.0528  64.0093 0001403  95.0693 265.0456 15.06406899113745","MEAN_MOTION_DDOT":"0.0000000000000","ELEMENT_SET_NO":"999","RA_OF_ASC_NODE":"64.0093","ARG_OF_PERICENTER":"95.0693","REF_FRAME":"TEME","FILE":"3785071","NORAD_CAT_ID":"47357","TIME_SYSTEM":"UTC","LAUNCH_DATE":"2021-01-20","APOAPSIS":"548.164","PERIAPSIS":"546.221","SEMIMAJOR_AXIS":"6925.327","BSTAR":"0.00039763000000","OBJECT_NAME":"STARLINK-2050","CLASSIFICATION_TYPE":"U","EPOCH":"2023-02-10T10:59:14.155872","MEAN_MOTION":"15.06406899","DECAY_DATE":null,"EPHEMERIS_TYPE":"0","OBJECT_ID":"2021-005J","COUNTRY_CODE":"US","REV_AT_EPOCH":"11374","CENTER_NAME":"EARTH","OBJECT_TYPE":"PAYLOAD","GP_ID":"225069702","RCS_SIZE":"LARGE","PERIOD":"95.592","MEAN_ANOMALY":"265.0456","SITE":"AFETR","INCLINATION":"53.0528"},{"MEAN_ELEMENT_THEORY":"SGP4","TLE_LINE1":"1 47358U 21005K   23041.26058417  .00002778  00000-0  20533-3 0  9998","MEAN_MOTION_DOT":"0.00002778","ECCENTRICITY":"0.00014990","RA_OF_ASC_NODE":"34.8817","ARG_OF_PERICENTER":"91.6979","REF_FRAME":"TEME","FILE":"3785071","NORAD_CAT_ID":"47358","TIME_SYSTEM":"UTC","MEAN_MOTION_DDOT":"0.0000000000000","ELEMENT_SET_NO":"999","TLE_LINE2":"2 47358  53.0538  34.8817 0001499  91.6979 268.4182 15.06401097114132","DECAY_DATE":null,"MEAN_MOTION":"15.06401097","EPOCH":"2023-02-10T06:15:14.472288","EPHEMERIS_TYPE":"0","OBJECT_ID":"2021-005K","PERIAPSIS":"546.172","LAUNCH_DATE":"2021-01-20","APOAPSIS":"548.248","OBJECT_NAME":"STARLINK-2055","CLASSIFICATION_TYPE":"U","SEMIMAJOR_AXIS":"6925.345","BSTAR":"0.00020533000000","OBJECT_TYPE":"PAYLOAD","GP_ID":"225069949","SITE":"AFETR","INCLINATION":"53.0538","MEAN_ANOMALY":"268.4182","RCS_SIZE":"LARGE","PERIOD":"95.592","COUNTRY_CODE":"US","REV_AT_EPOCH":"11413","CENTER_NAME":"EARTH"},{"SITE":"AFETR","INCLINATION":"53.0539","RCS_SIZE":"LARGE","MEAN_ANOMALY":"257.2756","PERIOD":"95.592","OBJECT_TYPE":"PAYLOAD","GP_ID":"225069200","COUNTRY_CODE":"US","REV_AT_EPOCH":"11380","CENTER_NAME":"EARTH","EPHEMERIS_TYPE":"0","OBJECT_ID":"2021-005L","DECAY_DATE":null,"EPOCH":"2023-02-10T09:42:56.054880","MEAN_MOTION":"15.06408111","CLASSIFICATION_TYPE":"U","OBJECT_NAME":"STARLINK-2069","BSTAR":"0.00036875000000","SEMIMAJOR_AXIS":"6925.324","PERIAPSIS":"546.329","APOAPSIS":"548.048","LAUNCH_DATE":"2021-01-20","REF_FRAME":"TEME","FILE":"3785071","TIME_SYSTEM":"UTC","NORAD_CAT_ID":"47359","RA_OF_ASC_NODE":"59.2448","ARG_OF_PERICENTER":"102.8372","MEAN_MOTION_DDOT":"0.0000000000000","ELEMENT_SET_NO":"999","TLE_LINE2":"2 47359  53.0539  59.2448 0001241 102.8372 257.2756 15.06408111113802","MEAN_MOTION_DOT":"0.00005216","MEAN_ELEMENT_THEORY":"SGP4","TLE_LINE1":"1 47359U 21005L   23041.40481545  .00005216  00000-0  36875-3 0  9993","ECCENTRICITY":"0.00012410"}];
